[{"OBJECT_NAME":"STARLINK-2736","OBJECT_ID":"2021-044C","EPOCH":"2026-03-09T12:40:19.816896","MEAN_MOTION":15.30205471,"ECCENTRICITY":0.00013773,"INCLINATION":53.1613,"RA_OF_ASC_NODE":114.585,"ARG_OF_PERICENTER":87.0996,"MEAN_ANOMALY":273.0163,"EPHEMERIS_TYPE":0,"CLASSIFICATION_TYPE":"U","NORAD_CAT_ID":48640,"ELEMENT_SET_NO":999,"REV_AT_EPOCH":26379,"BSTAR":1.8777589e-5,"MEAN_MOTION_DOT":1.97e-6,"MEAN_MOTION_DDOT":0},{"OBJECT_NAME":"CZ-4B R\/B","OBJECT_ID":"2004-035C","EPOCH":"2026-03-09T23:23:31.358400","MEAN_MOTION":15.2906998,"ECCENTRICITY":0.00309852,"INCLINATION":97.3501,"RA_OF_ASC_NODE":103.2135,"ARG_OF_PERICENTER":330.5139,"MEAN_ANOMALY":29.4353,"EPHEMERIS_TYPE":0,"CLASSIFICATION_TYPE":"U","NORAD_CAT_ID":28415,"ELEMENT_SET_NO":999,"REV_AT_EPOCH":17995,"BSTAR":0.00034109099,"MEAN_MOTION_DOT":9.691e-5,"MEAN_MOTION_DDOT":0}]
